DMSP 5D-2 F14 (USA 131) 
1 24753U 97012A   20103.58963631 -.00000033  00000-0  63084-5 0  9990
2 24753  99.0261 119.4651 0009396  38.5854 321.5989 14.15886724188894
NOAA 15                 
1 25338U 98030A   20104.10808391  .00000014  00000-0  24350-4 0  9991
2 25338  98.7236 129.4712 0011581  93.3910 266.8595 14.25958575139921
DMSP 5D-3 F15 (USA 147) 
1 25991U 99067A   20104.10509587 -.00000103  00000-0 -28860-4 0  9993
2 25991  98.9631  74.9948 0008958 289.6694 142.8759 14.16490201 51199
METEOSAT-8 (MSG-1)      
1 27509U 02040B   20103.52240073  .00000122  00000-0  00000+0 0  9992
2 27509   6.6123  54.3673 0001467  19.3244 357.0151  1.00278931 64623
DMSP 5D-3 F16 (USA 172) 
1 28054U 03048A   20103.77760510 -.00000086  00000-0 -22133-4 0  9994
2 28054  98.9066  83.0794 0008403  53.5172  72.2387 14.13662571850501
NOAA 18                 
1 28654U 05018A   20104.06554837  .00000072  00000-0  63527-4 0  9990
2 28654  99.0511 159.8613 0015028  58.5301 301.7337 14.12502321767783
METEOSAT-9 (MSG-2)      
1 28912U 05049B   20103.74116142  .00000006  00000-0  00000+0 0  9997
2 28912   4.2880  70.3661 0001896  21.3902  20.1430  1.00279585 52453
HIMAWARI-7 (MTSAT-2)    
1 28937U 06004A   20103.54300847 -.00000260  00000-0  00000+0 0  9994
2 28937   0.0419 311.5848 0001480  71.2611 158.8908  1.00271321 51727
FORMOSAT-3 FM6          
1 29047U 06011A   20103.73166641  .00000074  00000-0  45261-4 0  9993
2 29047  71.9780 244.1262 0050447 176.8458 183.3007 14.28725824731934
FORMOSAT-3 FM1          
1 29048U 06011B   20103.60902638  .00000047  00000-0  34953-4 0  9990
2 29048  71.9657 155.3722 0042402 135.1751 225.2824 14.28690666734401
FORMOSAT-3 FM5          
1 29049U 06011C   20103.75369778  .00000093  00000-0  52784-4 0  9992
2 29049  72.0207 326.3483 0034744 162.9636 197.2676 14.28773278730218
FORMOSAT-3 FM3          
1 29050U 06011D   20103.38507956  .00000130  00000-0  37562-4 0  9994
2 29050  72.0137 119.9474 0047739  84.7419 275.9179 14.58896383746794
FORMOSAT-3 FM4          
1 29051U 06011E   20103.61518912  .00000066  00000-0  41533-4 0  9996
2 29051  72.0055 228.8093 0067220  37.6565 322.9249 14.28802343732782
FORMOSAT-3 FM2          
1 29052U 06011F   20103.75961628  .00000083  00000-0  48531-4 0  9992
2 29052  72.0334 302.5261 0039022 121.3162 239.1804 14.28906848730311
GOES 13                 
1 29155U 06018A   20103.66991663  .00000021  00000-0  00000-0 0  9992
2 29155   0.2989 271.6437 0003993 301.2667 290.7158  1.00271947 20736
METOP-A                 
1 29499U 06044A   20103.41330046 -.00000009  00000-0  15256-4 0  9997
2 29499  98.5307 152.4403 0001794  96.9058 330.9053 14.21494920699322
DMSP 5D-3 F17 (USA 191) 
1 29522U 06050A   20103.74966906 -.00000030  00000-0  74382-5 0  9997
2 29522  98.8061 121.1244 0010003  11.5735 348.5666 14.14021996693424
FENGYUN 3A              
1 32958U 08026A   20103.54723339 -.00000006  00000-0  16934-4 0  9999
2 32958  98.4029  92.7098 0008998 160.8362 199.3155 14.18622874615374
FENGYUN 2E              
1 33463U 08066A   20102.89771815 -.00000213  00000-0  00000+0 0  9996
2 33463   4.2020  68.6844 0004331 302.8174 238.5208  1.00265021 41450
NOAA 19                 
1 33591U 09005A   20103.49807264  .00000030  00000-0  41531-4 0  9992
2 33591  99.1971 107.1268 0012969 260.1349  99.8357 14.12402287575825
GOES 14                 
1 35491U 09033A   20103.63702869 -.00000112  00000-0  00000-0 0  9999
2 35491   0.1669  98.0778 0008029 129.6124  98.7842  1.00271421 39490
METEOR-M 1              
1 35865U 09049A   20103.73910335  .00000006  00000-0  21609-4 0  9994
2 35865  98.4355  93.5856 0003050  44.6875 315.4549 14.22233411548585
DMSP 5D-3 F18 (USA 210) 
1 35951U 09057A   20103.69363402  .00000072  00000-0  60948-4 0  9993
2 35951  98.6426  95.8047 0010741 190.1522 169.9435 14.13257724314399
GOES 15                 
1 36411U 10008A   20104.14162831  .00000035  00000-0  00000+0 0  9994
2 36411   0.2708 275.7943 0002287 129.9654  79.1763  1.00262873 37042
COMS 1                  
1 36744U 10032A   20103.97044439 -.00000363  00000-0  00000+0 0  9998
2 36744   0.0223 137.4735 0001008 261.3500 280.2699  1.00271078 36022
FENGYUN 3B              
1 37214U 10059A   20103.84330423  .00000000  00000-0  23355-4 0  9997
2 37214  99.0409  84.5842 0018027  92.5729 267.7514 14.15944476488392
SUOMI NPP               
1 37849U 11061A   20103.78540743  .00000012  00000-0  26237-4 0  9991
2 37849  98.7320  42.6050 0001481  85.0678 357.5685 14.19548387438315
FENGYUN 2F              
1 38049U 12002A   20103.82362632 -.00000373  00000-0  00000-0 0  9991
2 38049   1.9136  83.5359 0003588  30.6544 135.6502  1.00261719 30265
METEOSAT-10 (MSG-3)     
1 38552U 12035B   20103.65953556  .00000044  00000-0  00000+0 0  9991
2 38552   0.9959   6.9354 0000223  73.5960   7.4966  1.00276195 28598
METOP-B                 
1 38771U 12049A   20103.54795369 -.00000011  00000-0  14799-4 0  9993
2 38771  98.6987 163.8375 0001458 143.9728 344.5958 14.21489877392665
FENGYUN 3C              
1 39260U 13052A   20103.76248569 -.00000013  00000-0  14835-4 0  9994
2 39260  98.5585 156.7407 0011887  49.5737 310.6473 14.15835722339324
METEOR-M 2              
1 40069U 14037A   20104.18512657 -.00000021  00000-0  96607-5 0  9993
2 40069  98.5105 144.1633 0006860 107.6798 252.5129 14.20671669298949
HIMAWARI-8              
1 40267U 14060A   20103.55396799 -.00000294  00000-0  00000-0 0  9995
2 40267   0.0115 167.6095 0001159 232.3881 141.2783  1.00273603 20139
FENGYUN 2G              
1 40367U 14090A   20103.89289166 -.00000319  00000-0  00000-0 0  9993
2 40367   1.9276  95.4924 0002780 337.9296 189.1075  1.00274126 19415
METEOSAT-11 (MSG-4)     
1 40732U 15034A   20103.65761637 -.00000023  00000-0  00000-0 0  9992
2 40732   0.4904 219.6186 0000453 247.6197 330.4658  1.00272630 17419
ELEKTRO-L 2             
1 41105U 15074A   20103.88826815 -.00000115  00000-0  00000-0 0  9998
2 41105   1.0431  98.2087 0002261 310.6664 188.4748  1.00270828 15894
HIMAWARI-9              
1 41836U 16064A   20103.68579356 -.00000293  00000-0  00000+0 0  9998
2 41836   0.0370  87.9113 0001099 292.6885 208.3779  1.00271095 12679
GOES 16                 
1 41866U 16071A   20103.49919597 -.00000266  00000-0  00000-0 0  9994
2 41866   0.0245 331.7249 0001228  99.2532 234.6772  1.00273612 12488
FENGYUN 4A              
1 41882U 16077A   20103.96573365 -.00000348  00000-0  00000+0 0  9999
2 41882   0.2075 285.9055 0005740 209.4731 158.5315  1.00267472 12353
CYGFM05                 
1 41884U 16078A   20103.43665339  .00000298  00000-0  17482-4 0  9997
2 41884  34.9559 110.0238 0015812 178.1091 181.9682 15.14590117184092
CYGFM04                 
1 41885U 16078B   20104.08818062  .00000291  00000-0  16859-4 0  9993
2 41885  34.9493  99.5257 0014381 193.6772 166.3551 15.15099815184250
CYGFM02                 
1 41886U 16078C   20103.35618693  .00000306  00000-0  17671-4 0  9991
2 41886  34.9583 105.7623 0015003 183.3101 176.7512 15.15100382184133
CYGFM01                 
1 41887U 16078D   20104.05637139  .00000277  00000-0  16470-4 0  9999
2 41887  34.9526 107.2101 0016372 184.4108 175.6461 15.14403614184176
CYGFM08                 
1 41888U 16078E   20103.34114562  .00000325  00000-0  18796-4 0  9998
2 41888  34.9497 107.7124 0015536 184.4952 175.5621 15.14817399184099
CYGFM06                 
1 41889U 16078F   20103.40071321  .00000324  00000-0  18588-4 0  9999
2 41889  34.9578 104.1739 0013985 183.8389 176.2216 15.15093866184146
CYGFM07                 
1 41890U 16078G   20103.70857883  .00000353  00000-0  20121-4 0  9997
2 41890  34.9517 101.3837 0013811 189.6336 170.4112 15.15093710184197
CYGFM03                 
1 41891U 16078H   20103.44021011  .00000345  00000-0  19709-4 0  9996
2 41891  34.9549 103.2787 0013236 186.1755 173.8794 15.15089262184152
FENGYUN 3D              
1 43010U 17072A   20103.82602015 -.00000037  00000-0  30668-5 0  9994
2 43010  98.7455  43.9210 0000407 300.2772  59.8368 14.19739474124880
NOAA 20                 
1 43013U 17073A   20103.52313215  .00000008  00000-0  24675-4 0  9993
2 43013  98.7132  42.5087 0001205 104.9289 255.2020 14.19551091124302
GOES 17                 
1 43226U 18022A   20103.70219392  .00000079  00000-0  00000+0 0  9994
2 43226   0.0269 304.6548 0001125 106.0830 266.1903  1.00273251  7806
FENGYUN 2H              
1 43491U 18050A   20103.88879156 -.00000144  00000-0  00000-0 0  9993
2 43491   0.8148 276.2896 0001776 202.6080 121.5963  1.00267695  6888
METOP-C                 
1 43689U 18087A   20103.91181790 -.00000006  00000-0  17170-4 0  9993
2 43689  98.7048 164.4374 0002690 149.1296 211.0039 14.21487223 74287
GEO-KOMPSAT-2A          
1 43823U 18100A   20103.67096110 -.00000362  00000-0  00000-0 0  9998
2 43823   0.0477  49.6672 0002276  21.0430 140.3987  1.00272106  4983
IOD-1 GEMS              
1 44385U 98067QK  20103.29196718  .00017595  00000-0  23415-3 0  9998
2 44385  51.6402 304.8651 0002670  89.9529 270.1770 15.58248971 44178
METEOR-M2 2             
1 44387U 19038A   20103.79521550 -.00000016  00000-0  12142-4 0  9999
2 44387  98.6130  65.1645 0002465  74.8045 285.3406 14.23677894 40190
